[{"OBJECT_NAME":"QIANFAN-19","OBJECT_ID":"2024-185A","EPOCH":"2026-03-09T23:01:49.129824","MEAN_MOTION":14.14392209,"ECCENTRICITY":0.00082129,"INCLINATION":88.9763,"RA_OF_ASC_NODE":67.9253,"ARG_OF_PERICENTER":39.7684,"MEAN_ANOMALY":320.4104,"EPHEMERIS_TYPE":0,"CLASSIFICATION_TYPE":"U","NORAD_CAT_ID":61552,"ELEMENT_SET_NO":999,"REV_AT_EPOCH":8199,"BSTAR":0.00030187594,"MEAN_MOTION_DOT":5.92e-6,"MEAN_MOTION_DDOT":0},{"OBJECT_NAME":"SCOUT G-1 DEB","OBJECT_ID":"1987-080P","EPOCH":"2026-02-26T21:42:13.203936","MEAN_MOTION":14.19007469,"ECCENTRICITY":0.00644361,"INCLINATION":90.33,"RA_OF_ASC_NODE":115.4327,"ARG_OF_PERICENTER":29.589,"MEAN_ANOMALY":330.8921,"EPHEMERIS_TYPE":0,"CLASSIFICATION_TYPE":"U","NORAD_CAT_ID":29211,"ELEMENT_SET_NO":999,"REV_AT_EPOCH":8773,"BSTAR":0.0029308232,"MEAN_MOTION_DOT":6.253e-5,"MEAN_MOTION_DDOT":0}]
